[{"OBJECT_NAME":"SL-8 R/B","OBJECT_ID":"1991-006B","EPOCH":"2026-03-12T18:11:35.316960","MEAN_MOTION":13.77494761,"ECCENTRICITY":0.0022899,"INCLINATION":82.9465,"RA_OF_ASC_NODE":167.7649,"ARG_OF_PERICENTER":29.9453,"MEAN_ANOMALY":82.4219,"EPHEMERIS_TYPE":0,"CLASSIFICATION_TYPE":"U","NORAD_CAT_ID":21088,"ELEMENT_SET_NO":999,"REV_AT_EPOCH":76449,"BSTAR":6.6495e-5,"MEAN_MOTION_DOT":8.2e-7,"MEAN_MOTION_DDOT":0},{"OBJECT_NAME":"OKEAN-3","OBJECT_ID":"1991-039A","EPOCH":"2026-03-12T17:42:24.454656","MEAN_MOTION":15.0483178,"ECCENTRICITY":0.0013653,"INCLINATION":82.5197,"RA_OF_ASC_NODE":333.8906,"ARG_OF_PERICENTER":326.2421,"MEAN_ANOMALY":33.7935,"EPHEMERIS_TYPE":0,"CLASSIFICATION_TYPE":"U","NORAD_CAT_ID":21397,"ELEMENT_SET_NO":999,"REV_AT_EPOCH":86549,"BSTAR":0.00029134,"MEAN_MOTION_DOT":4.149e-5,"MEAN_MOTION_DDOT":0},{"OBJECT_NAME":"COSMOS 2151","OBJECT_ID":"1991-042A","EPOCH":"2026-03-12T19:38:30.617952","MEAN_MOTION":15.00117492,"ECCENTRICITY":0.0013873,"INCLINATION":82.493,"RA_OF_ASC_NODE":80.6572,"ARG_OF_PERICENTER":54.2198,"MEAN_ANOMALY":306.0313,"EPHEMERIS_TYPE":0,"CLASSIFICATION_TYPE":"U","NORAD_CAT_ID":21422,"ELEMENT_SET_NO":999,"REV_AT_EPOCH":86366,"BSTAR":0.00019125,"MEAN_MOTION_DOT":2.416e-5,"MEAN_MOTION_DDOT":0},{"OBJECT_NAME":"SL-14 R/B","OBJECT_ID":"1991-042B","EPOCH":"2026-03-12T19:06:48.934080","MEAN_MOTION":14.81833529,"ECCENTRICITY":0.0015957,"INCLINATION":82.4931,"RA_OF_ASC_NODE":217.2691,"ARG_OF_PERICENTER":227.6727,"MEAN_ANOMALY":132.3136,"EPHEMERIS_TYPE":0,"CLASSIFICATION_TYPE":"U","NORAD_CAT_ID":21423,"ELEMENT_SET_NO":999,"REV_AT_EPOCH":85353,"BSTAR":7.8301e-5,"MEAN_MOTION_DOT":6.43e-6,"MEAN_MOTION_DDOT":0},{"OBJECT_NAME":"ERS-1","OBJECT_ID":"1991-050A","EPOCH":"2026-03-12T14:48:10.948032","MEAN_MOTION":14.39452058,"ECCENTRICITY":0.0031784,"INCLINATION":98.7879,"RA_OF_ASC_NODE":89.9249,"ARG_OF_PERICENTER":191.6849,"MEAN_ANOMALY":168.3604,"EPHEMERIS_TYPE":0,"CLASSIFICATION_TYPE":"U","NORAD_CAT_ID":21574,"ELEMENT_SET_NO":999,"REV_AT_EPOCH":81615,"BSTAR":0.00014253,"MEAN_MOTION_DOT":4.0e-6,"MEAN_MOTION_DDOT":0},{"OBJECT_NAME":"ARIANE 40 R/B","OBJECT_ID":"1991-050F","EPOCH":"2026-03-12T17:31:22.996128","MEAN_MOTION":14.42896138,"ECCENTRICITY":0.0004237,"INCLINATION":98.2006,"RA_OF_ASC_NODE":123.8523,"ARG_OF_PERICENTER":74.5063,"MEAN_ANOMALY":285.6595,"EPHEMERIS_TYPE":0,"CLASSIFICATION_TYPE":"U","NORAD_CAT_ID":21610,"ELEMENT_SET_NO":999,"REV_AT_EPOCH":81943,"BSTAR":0.0001176,"MEAN_MOTION_DOT":3.51e-6,"MEAN_MOTION_DDOT":0},{"OBJECT_NAME":"INTERCOSMOS 25","OBJECT_ID":"1991-086A","EPOCH":"2026-03-12T17:05:32.834976","MEAN_MOTION":12.1201005,"ECCENTRICITY":0.1486913,"INCLINATION":82.6045,"RA_OF_ASC_NODE":308.1814,"ARG_OF_PERICENTER":110.4228,"MEAN_ANOMALY":266.2502,"EPHEMERIS_TYPE":0,"CLASSIFICATION_TYPE":"U","NORAD_CAT_ID":21819,"ELEMENT_SET_NO":999,"REV_AT_EPOCH":49705,"BSTAR":0.00039708,"MEAN_MOTION_DOT":2.062e-5,"MEAN_MOTION_DDOT":0},{"OBJECT_NAME":"SL-8 R/B","OBJECT_ID":"1992-008B","EPOCH":"2026-03-12T15:09:10.304928","MEAN_MOTION":13.759698,"ECCENTRICITY":0.0035661,"INCLINATION":82.9221,"RA_OF_ASC_NODE":265.5895,"ARG_OF_PERICENTER":125.3686,"MEAN_ANOMALY":300.1195,"EPHEMERIS_TYPE":0,"CLASSIFICATION_TYPE":"U","NORAD_CAT_ID":21876,"ELEMENT_SET_NO":999,"REV_AT_EPOCH":70982,"BSTAR":-3.8045e-6,"MEAN_MOTION_DOT":1.2e-7,"MEAN_MOTION_DDOT":0},{"OBJECT_NAME":"SL-8 R/B","OBJECT_ID":"1992-020B","EPOCH":"2026-03-12T18:14:01.008096","MEAN_MOTION":13.75549798,"ECCENTRICITY":0.0027629,"INCLINATION":82.9332,"RA_OF_ASC_NODE":151.4824,"ARG_OF_PERICENTER":289.846,"MEAN_ANOMALY":192.9632,"EPHEMERIS_TYPE":0,"CLASSIFICATION_TYPE":"U","NORAD_CAT_ID":21938,"ELEMENT_SET_NO":999,"REV_AT_EPOCH":70155,"BSTAR":3.9948e-5,"MEAN_MOTION_DOT":5.3e-7,"MEAN_MOTION_DDOT":0},{"OBJECT_NAME":"USA 81","OBJECT_ID":"1992-023A","EPOCH":"2026-03-12T15:54:16.117920","MEAN_MOTION":14.32369041,"ECCENTRICITY":0.0002381,"INCLINATION":85.0079,"RA_OF_ASC_NODE":129.7261,"ARG_OF_PERICENTER":74.9437,"MEAN_ANOMALY":285.2019,"EPHEMERIS_TYPE":0,"CLASSIFICATION_TYPE":"U","NORAD_CAT_ID":21949,"ELEMENT_SET_NO":999,"REV_AT_EPOCH":9521,"BSTAR":6.1111e-5,"MEAN_MOTION_DOT":1.85e-6,"MEAN_MOTION_DDOT":0},{"OBJECT_NAME":"COSMOS 2219","OBJECT_ID":"1992-076A","EPOCH":"2026-03-12T20:17:47.355936","MEAN_MOTION":14.14093419,"ECCENTRICITY":0.0018799,"INCLINATION":71.064,"RA_OF_ASC_NODE":11.4705,"ARG_OF_PERICENTER":202.6351,"MEAN_ANOMALY":157.3945,"EPHEMERIS_TYPE":0,"CLASSIFICATION_TYPE":"U","NORAD_CAT_ID":22219,"ELEMENT_SET_NO":999,"REV_AT_EPOCH":71882,"BSTAR":4.4018e-5,"MEAN_MOTION_DOT":3.7e-7,"MEAN_MOTION_DDOT":0},{"OBJECT_NAME":"SL-16 R/B","OBJECT_ID":"1992-076B","EPOCH":"2026-03-12T18:00:13.519872","MEAN_MOTION":14.16859247,"ECCENTRICITY":0.001048,"INCLINATION":71.0008,"RA_OF_ASC_NODE":181.9273,"ARG_OF_PERICENTER":90.7055,"MEAN_ANOMALY":61.168,"EPHEMERIS_TYPE":0,"CLASSIFICATION_TYPE":"U","NORAD_CAT_ID":22220,"ELEMENT_SET_NO":999,"REV_AT_EPOCH":72226,"BSTAR":-3.0863e-5,"MEAN_MOTION_DOT":-1.1e-6,"MEAN_MOTION_DDOT":0},{"OBJECT_NAME":"COSMOS 2221","OBJECT_ID":"1992-080A","EPOCH":"2026-03-12T15:31:28.460352","MEAN_MOTION":14.96214037,"ECCENTRICITY":0.001429,"INCLINATION":82.5011,"RA_OF_ASC_NODE":276.2478,"ARG_OF_PERICENTER":177.0805,"MEAN_ANOMALY":183.0503,"EPHEMERIS_TYPE":0,"CLASSIFICATION_TYPE":"U","NORAD_CAT_ID":22236,"ELEMENT_SET_NO":999,"REV_AT_EPOCH":78123,"BSTAR":0.00021625,"MEAN_MOTION_DOT":2.468e-5,"MEAN_MOTION_DDOT":0},{"OBJECT_NAME":"SL-16 R/B","OBJECT_ID":"1992-093B","EPOCH":"2026-03-12T18:40:46.604352","MEAN_MOTION":14.15447192,"ECCENTRICITY":0.0006375,"INCLINATION":71.0241,"RA_OF_ASC_NODE":357.7824,"ARG_OF_PERICENTER":290.4298,"MEAN_ANOMALY":69.614,"EPHEMERIS_TYPE":0,"CLASSIFICATION_TYPE":"U","NORAD_CAT_ID":22285,"ELEMENT_SET_NO":999,"REV_AT_EPOCH":71359,"BSTAR":-4.1215e-5,"MEAN_MOTION_DOT":-1.28e-6,"MEAN_MOTION_DDOT":0},{"OBJECT_NAME":"COSMOS 2228","OBJECT_ID":"1992-094A","EPOCH":"2026-03-12T20:40:55.530912","MEAN_MOTION":14.97209032,"ECCENTRICITY":0.0016678,"INCLINATION":82.5159,"RA_OF_ASC_NODE":234.2727,"ARG_OF_PERICENTER":293.1677,"MEAN_ANOMALY":66.7788,"EPHEMERIS_TYPE":0,"CLASSIFICATION_TYPE":"U","NORAD_CAT_ID":22286,"ELEMENT_SET_NO":999,"REV_AT_EPOCH":77653,"BSTAR":0.00027637,"MEAN_MOTION_DOT":3.23e-5,"MEAN_MOTION_DDOT":0},{"OBJECT_NAME":"SL-16 R/B","OBJECT_ID":"1993-016B","EPOCH":"2026-03-12T19:39:25.118208","MEAN_MOTION":14.15309352,"ECCENTRICITY":0.0012038,"INCLINATION":71.0079,"RA_OF_ASC_NODE":208.6082,"ARG_OF_PERICENTER":309.9663,"MEAN_ANOMALY":50.0401,"EPHEMERIS_TYPE":0,"CLASSIFICATION_TYPE":"U","NORAD_CAT_ID":22566,"ELEMENT_SET_NO":999,"REV_AT_EPOCH":70261,"BSTAR":1.0064e-5,"MEAN_MOTION_DOT":-2.8e-7,"MEAN_MOTION_DDOT":0},{"OBJECT_NAME":"COSMOS 2242","OBJECT_ID":"1993-024A","EPOCH":"2026-03-12T13:52:05.263680","MEAN_MOTION":14.96561983,"ECCENTRICITY":0.0015033,"INCLINATION":82.5155,"RA_OF_ASC_NODE":263.9533,"ARG_OF_PERICENTER":298.3589,"MEAN_ANOMALY":61.6117,"EPHEMERIS_TYPE":0,"CLASSIFICATION_TYPE":"U","NORAD_CAT_ID":22626,"ELEMENT_SET_NO":999,"REV_AT_EPOCH":78082,"BSTAR":0.00017746,"MEAN_MOTION_DOT":2.048e-5,"MEAN_MOTION_DDOT":0}]
