SL-8 R/B                
1 21088U 91006B   26071.75804765  .00000082  00000+0  66495-4 0  9996
2 21088  82.9465 167.7649 0022899  29.9453  82.4219 13.77494761764492
OKEAN-3                 
1 21397U 91039A   26071.73778304  .00004149  00000+0  29134-3 0  9998
2 21397  82.5197 333.8906 0013653 326.2421  33.7935 15.04831780865495
COSMOS 2151             
1 21422U 91042A   26071.81840993  .00002416  00000+0  19125-3 0  9998
2 21422  82.4930  80.6572 0013873  54.2198 306.0313 15.00117492863663
SL-14 R/B               
1 21423U 91042B   26071.79639970  .00000643  00000+0  78301-4 0  9999
2 21423  82.4931 217.2691 0015957 227.6727 132.3136 14.81833529853536
ERS-1                   
1 21574U 91050A   26071.61679338  .00000400  00000+0  14253-3 0  9994
2 21574  98.7879  89.9249 0031784 191.6849 168.3604 14.39452058816151
ARIANE 40 R/B           
1 21610U 91050F   26071.73012727  .00000351  00000+0  11760-3 0  9996
2 21610  98.2006 123.8523 0004237  74.5063 285.6595 14.42896138819433
INTERCOSMOS 25          
1 21819U 91086A   26071.71218559  .00002062  00000+0  39708-3 0  9998
2 21819  82.6045 308.1814 1486913 110.4228 266.2502 12.12010050497053
SL-8 R/B                
1 21876U 92008B   26071.63136927  .00000012  00000+0 -38045-5 0  9994
2 21876  82.9221 265.5895 0035661 125.3686 300.1195 13.75969800709825
SL-8 R/B                
1 21938U 92020B   26071.75973389  .00000053  00000+0  39948-4 0  9997
2 21938  82.9332 151.4824 0027629 289.8460 192.9632 13.75549798701558
USA 81                  
1 21949U 92023A   26071.66268655  .00000185  00000+0  61111-4 0  9998
2 21949  85.0079 129.7261 0002381  74.9437 285.2019 14.32369041 95219
COSMOS 2219             
1 22219U 92076A   26071.84568699  .00000037  00000+0  44018-4 0  9991
2 22219  71.0640  11.4705 0018799 202.6351 157.3945 14.14093419718823
SL-16 R/B               
1 22220U 92076B   26071.75015648 -.00000110  00000+0 -30863-4 0  9991
2 22220  71.0008 181.9273 0010480  90.7055  61.1680 14.16859247722264
COSMOS 2221             
1 22236U 92080A   26071.64685718  .00002468  00000+0  21625-3 0  9993
2 22236  82.5011 276.2478 0014290 177.0805 183.0503 14.96214037781232
SL-16 R/B               
1 22285U 92093B   26071.77831718 -.00000128  00000+0 -41215-4 0  9999
2 22285  71.0241 357.7824 0006375 290.4298  69.6140 14.15447192713596
COSMOS 2228             
1 22286U 92094A   26071.86175383  .00003230  00000+0  27637-3 0  9996
2 22286  82.5159 234.2727 0016678 293.1677  66.7788 14.97209032776539
SL-16 R/B               
1 22566U 93016B   26071.81904072 -.00000028  00000+0  10064-4 0  9992
2 22566  71.0079 208.6082 0012038 309.9663  50.0401 14.15309352702612
COSMOS 2242             
1 22626U 93024A   26071.57783870  .00002048  00000+0  17746-3 0  9998
2 22626  82.5155 263.9533 0015033 298.3589  61.6117 14.96561983780822
